ONEWEB-0258             
1 48976U 21060K   26168.10435109  .00000032  00000+0  51243-4 0  9992
2 48976  87.9100 228.7994 0002049  99.2826 260.8536 13.16594650239580
ONEWEB-0259             
1 48977U 21060L   26167.87002898  .00000008  00000+0 -12786-4 0  9994
2 48977  87.9097 228.8453 0002047 103.2272 256.9087 13.16595415239583
ONEWEB-0260             
1 48978U 21060M   26168.08930617  .00000120  00000+0  27949-3 0  9998
2 48978  87.9092 228.8035 0001968  86.4330 273.7026 13.16594393239598
ONEWEB-0261             
1 48979U 21060N   26167.90721365 -.00000128  00000+0 -36913-3 0  9998
2 48979  87.9093 228.8397 0001703 100.5710 259.5612 13.16594820239620
ONEWEB-0262             
1 48980U 21060P   26167.88744323 -.00000061  00000+0 -19391-3 0  9993
2 48980  87.9097 228.8296 0002103 105.9667 254.1696 13.16594747239585
ONEWEB-0263             
1 48981U 21060Q   26167.91910720  .00000120  00000+0  27973-3 0  9993
2 48981  87.9097 228.8349 0001752 104.0732 256.0594 13.16595071239553
ONEWEB-0264             
1 48982U 21060R   26168.10831105  .00000026  00000+0  34894-4 0  9991
2 48982  87.9099 228.7997 0001809  93.0812 267.0526 13.16595458239582
ONEWEB-0266             
1 48984U 21060T   26167.90169441 -.00000099  00000+0 -29206-3 0  9999
2 48984  87.9098 228.8318 0002149  98.5725 261.5649 13.16594054239544
ONEWEB-0267             
1 48985U 21060U   26167.91277696  .00000068  00000+0  14497-3 0  9993
2 48985  87.9098 228.8263 0001841  98.6740 261.4600 13.16594886239550
ONEWEB-0268             
1 48986U 21060V   26168.10908517 -.00000015  00000+0 -71766-4 0  9996
2 48986  87.9102 228.7966 0002032  93.8558 266.2805 13.16596324239844
ONEWEB-0269             
1 48987U 21060W   26168.09010182  .00000070  00000+0  14956-3 0  9993
2 48987  87.9090 228.8032 0002176  93.1587 266.9793 13.16595052239615
ONEWEB-0270             
1 48988U 21060X   26168.10751873  .00000059  00000+0  12056-3 0  9991
2 48988  87.9104 228.7987 0001856 107.2258 252.9076 13.16595462239654
ONEWEB-0271             
1 48989U 21060Y   26168.09485353  .00000096  00000+0  21854-3 0  9994
2 48989  87.9097 228.7914 0001804 101.1640 258.9694 13.16594551239657
ONEWEB-0272             
1 48990U 21060Z   26167.88901865 -.00000083  00000+0 -25155-3 0  9999
2 48990  87.9097 228.8442 0001863  91.0851 269.0493 13.16592701239578
ONEWEB-0273             
1 48991U 21060AA  26167.91119294  .00000046  00000+0  87308-4 0  9997
2 48991  87.9099 228.8390 0001937 101.1343 259.0006 13.16594497239555
ONEWEB-0274             
1 48992U 21060AB  26168.08851369  .00000108  00000+0  24895-3 0  9993
2 48992  87.9089 228.8062 0001924  89.0407 271.0944 13.16594289239613
