[{"OBJECT_NAME":"ONEWEB-0258","OBJECT_ID":"2021-060K","EPOCH":"2026-06-17T02:30:15.934176","MEAN_MOTION":13.1659465,"ECCENTRICITY":0.0002049,"INCLINATION":87.91,"RA_OF_ASC_NODE":228.7994,"ARG_OF_PERICENTER":99.2826,"MEAN_ANOMALY":260.8536,"EPHEMERIS_TYPE":0,"CLASSIFICATION_TYPE":"U","NORAD_CAT_ID":48976,"ELEMENT_SET_NO":999,"REV_AT_EPOCH":23958,"BSTAR":5.124300000000001e-05,"MEAN_MOTION_DOT":3.2e-07,"MEAN_MOTION_DDOT":0.0},{"OBJECT_NAME":"ONEWEB-0259","OBJECT_ID":"2021-060L","EPOCH":"2026-06-16T20:52:50.503872","MEAN_MOTION":13.16595415,"ECCENTRICITY":0.0002047,"INCLINATION":87.9097,"RA_OF_ASC_NODE":228.8453,"ARG_OF_PERICENTER":103.2272,"MEAN_ANOMALY":256.9087,"EPHEMERIS_TYPE":0,"CLASSIFICATION_TYPE":"U","NORAD_CAT_ID":48977,"ELEMENT_SET_NO":999,"REV_AT_EPOCH":23958,"BSTAR":-1.2786000000000001e-05,"MEAN_MOTION_DOT":8e-08,"MEAN_MOTION_DDOT":0.0},{"OBJECT_NAME":"ONEWEB-0260","OBJECT_ID":"2021-060M","EPOCH":"2026-06-17T02:08:36.053088","MEAN_MOTION":13.16594393,"ECCENTRICITY":0.0001968,"INCLINATION":87.9092,"RA_OF_ASC_NODE":228.8035,"ARG_OF_PERICENTER":86.433,"MEAN_ANOMALY":273.7026,"EPHEMERIS_TYPE":0,"CLASSIFICATION_TYPE":"U","NORAD_CAT_ID":48978,"ELEMENT_SET_NO":999,"REV_AT_EPOCH":23959,"BSTAR":0.00027949,"MEAN_MOTION_DOT":1.2e-06,"MEAN_MOTION_DDOT":0.0},{"OBJECT_NAME":"ONEWEB-0261","OBJECT_ID":"2021-060N","EPOCH":"2026-06-16T21:46:23.259360","MEAN_MOTION":13.1659482,"ECCENTRICITY":0.0001703,"INCLINATION":87.9093,"RA_OF_ASC_NODE":228.8397,"ARG_OF_PERICENTER":100.571,"MEAN_ANOMALY":259.5612,"EPHEMERIS_TYPE":0,"CLASSIFICATION_TYPE":"U","NORAD_CAT_ID":48979,"ELEMENT_SET_NO":999,"REV_AT_EPOCH":23962,"BSTAR":-0.00036913,"MEAN_MOTION_DOT":-1.28e-06,"MEAN_MOTION_DDOT":0.0},{"OBJECT_NAME":"ONEWEB-0262","OBJECT_ID":"2021-060P","EPOCH":"2026-06-16T21:17:55.095072","MEAN_MOTION":13.16594747,"ECCENTRICITY":0.0002103,"INCLINATION":87.9097,"RA_OF_ASC_NODE":228.8296,"ARG_OF_PERICENTER":105.9667,"MEAN_ANOMALY":254.1696,"EPHEMERIS_TYPE":0,"CLASSIFICATION_TYPE":"U","NORAD_CAT_ID":48980,"ELEMENT_SET_NO":999,"REV_AT_EPOCH":23958,"BSTAR":-0.00019391,"MEAN_MOTION_DOT":-6.1e-07,"MEAN_MOTION_DDOT":0.0},{"OBJECT_NAME":"ONEWEB-0263","OBJECT_ID":"2021-060Q","EPOCH":"2026-06-16T22:03:30.862080","MEAN_MOTION":13.16595071,"ECCENTRICITY":0.0001752,"INCLINATION":87.9097,"RA_OF_ASC_NODE":228.8349,"ARG_OF_PERICENTER":104.0732,"MEAN_ANOMALY":256.0594,"EPHEMERIS_TYPE":0,"CLASSIFICATION_TYPE":"U","NORAD_CAT_ID":48981,"ELEMENT_SET_NO":999,"REV_AT_EPOCH":23955,"BSTAR":0.00027973,"MEAN_MOTION_DOT":1.2e-06,"MEAN_MOTION_DDOT":0.0},{"OBJECT_NAME":"ONEWEB-0264","OBJECT_ID":"2021-060R","EPOCH":"2026-06-17T02:35:58.074720","MEAN_MOTION":13.16595458,"ECCENTRICITY":0.0001809,"INCLINATION":87.9099,"RA_OF_ASC_NODE":228.7997,"ARG_OF_PERICENTER":93.0812,"MEAN_ANOMALY":267.0526,"EPHEMERIS_TYPE":0,"CLASSIFICATION_TYPE":"U","NORAD_CAT_ID":48982,"ELEMENT_SET_NO":999,"REV_AT_EPOCH":23958,"BSTAR":3.4894e-05,"MEAN_MOTION_DOT":2.6e-07,"MEAN_MOTION_DDOT":0.0},{"OBJECT_NAME":"ONEWEB-0266","OBJECT_ID":"2021-060T","EPOCH":"2026-06-16T21:38:26.397024","MEAN_MOTION":13.16594054,"ECCENTRICITY":0.0002149,"INCLINATION":87.9098,"RA_OF_ASC_NODE":228.8318,"ARG_OF_PERICENTER":98.5725,"MEAN_ANOMALY":261.5649,"EPHEMERIS_TYPE":0,"CLASSIFICATION_TYPE":"U","NORAD_CAT_ID":48984,"ELEMENT_SET_NO":999,"REV_AT_EPOCH":23954,"BSTAR":-0.00029206,"MEAN_MOTION_DOT":-9.9e-07,"MEAN_MOTION_DDOT":0.0},{"OBJECT_NAME":"ONEWEB-0267","OBJECT_ID":"2021-060U","EPOCH":"2026-06-16T21:54:23.929344","MEAN_MOTION":13.16594886,"ECCENTRICITY":0.0001841,"INCLINATION":87.9098,"RA_OF_ASC_NODE":228.8263,"ARG_OF_PERICENTER":98.674,"MEAN_ANOMALY":261.46,"EPHEMERIS_TYPE":0,"CLASSIFICATION_TYPE":"U","NORAD_CAT_ID":48985,"ELEMENT_SET_NO":999,"REV_AT_EPOCH":23955,"BSTAR":0.00014497,"MEAN_MOTION_DOT":6.8e-07,"MEAN_MOTION_DDOT":0.0},{"OBJECT_NAME":"ONEWEB-0268","OBJECT_ID":"2021-060V","EPOCH":"2026-06-17T02:37:04.958688","MEAN_MOTION":13.16596324,"ECCENTRICITY":0.0002032,"INCLINATION":87.9102,"RA_OF_ASC_NODE":228.7966,"ARG_OF_PERICENTER":93.8558,"MEAN_ANOMALY":266.2805,"EPHEMERIS_TYPE":0,"CLASSIFICATION_TYPE":"U","NORAD_CAT_ID":48986,"ELEMENT_SET_NO":999,"REV_AT_EPOCH":23984,"BSTAR":-7.1766e-05,"MEAN_MOTION_DOT":-1.5e-07,"MEAN_MOTION_DDOT":0.0},{"OBJECT_NAME":"ONEWEB-0269","OBJECT_ID":"2021-060W","EPOCH":"2026-06-17T02:09:44.797248","MEAN_MOTION":13.16595052,"ECCENTRICITY":0.0002176,"INCLINATION":87.909,"RA_OF_ASC_NODE":228.8032,"ARG_OF_PERICENTER":93.1587,"MEAN_ANOMALY":266.9793,"EPHEMERIS_TYPE":0,"CLASSIFICATION_TYPE":"U","NORAD_CAT_ID":48987,"ELEMENT_SET_NO":999,"REV_AT_EPOCH":23961,"BSTAR":0.00014956,"MEAN_MOTION_DOT":7e-07,"MEAN_MOTION_DDOT":0.0},{"OBJECT_NAME":"ONEWEB-0270","OBJECT_ID":"2021-060X","EPOCH":"2026-06-17T02:34:49.618272","MEAN_MOTION":13.16595462,"ECCENTRICITY":0.0001856,"INCLINATION":87.9104,"RA_OF_ASC_NODE":228.7987,"ARG_OF_PERICENTER":107.2258,"MEAN_ANOMALY":252.9076,"EPHEMERIS_TYPE":0,"CLASSIFICATION_TYPE":"U","NORAD_CAT_ID":48988,"ELEMENT_SET_NO":999,"REV_AT_EPOCH":23965,"BSTAR":0.00012056,"MEAN_MOTION_DOT":5.9e-07,"MEAN_MOTION_DDOT":0.0},{"OBJECT_NAME":"ONEWEB-0271","OBJECT_ID":"2021-060Y","EPOCH":"2026-06-17T02:16:35.344992","MEAN_MOTION":13.16594551,"ECCENTRICITY":0.0001804,"INCLINATION":87.9097,"RA_OF_ASC_NODE":228.7914,"ARG_OF_PERICENTER":101.164,"MEAN_ANOMALY":258.9694,"EPHEMERIS_TYPE":0,"CLASSIFICATION_TYPE":"U","NORAD_CAT_ID":48989,"ELEMENT_SET_NO":999,"REV_AT_EPOCH":23965,"BSTAR":0.00021854,"MEAN_MOTION_DOT":9.6e-07,"MEAN_MOTION_DDOT":0.0},{"OBJECT_NAME":"ONEWEB-0272","OBJECT_ID":"2021-060Z","EPOCH":"2026-06-16T21:20:11.211360","MEAN_MOTION":13.16592701,"ECCENTRICITY":0.0001863,"INCLINATION":87.9097,"RA_OF_ASC_NODE":228.8442,"ARG_OF_PERICENTER":91.0851,"MEAN_ANOMALY":269.0493,"EPHEMERIS_TYPE":0,"CLASSIFICATION_TYPE":"U","NORAD_CAT_ID":48990,"ELEMENT_SET_NO":999,"REV_AT_EPOCH":23957,"BSTAR":-0.00025155,"MEAN_MOTION_DOT":-8.3e-07,"MEAN_MOTION_DDOT":0.0},{"OBJECT_NAME":"ONEWEB-0273","OBJECT_ID":"2021-060AA","EPOCH":"2026-06-16T21:52:07.070016","MEAN_MOTION":13.16594497,"ECCENTRICITY":0.0001937,"INCLINATION":87.9099,"RA_OF_ASC_NODE":228.839,"ARG_OF_PERICENTER":101.1343,"MEAN_ANOMALY":259.0006,"EPHEMERIS_TYPE":0,"CLASSIFICATION_TYPE":"U","NORAD_CAT_ID":48991,"ELEMENT_SET_NO":999,"REV_AT_EPOCH":23955,"BSTAR":8.7308e-05,"MEAN_MOTION_DOT":4.6e-07,"MEAN_MOTION_DDOT":0.0},{"OBJECT_NAME":"ONEWEB-0274","OBJECT_ID":"2021-060AB","EPOCH":"2026-06-17T02:07:27.582816","MEAN_MOTION":13.16594289,"ECCENTRICITY":0.0001924,"INCLINATION":87.9089,"RA_OF_ASC_NODE":228.8062,"ARG_OF_PERICENTER":89.0407,"MEAN_ANOMALY":271.0944,"EPHEMERIS_TYPE":0,"CLASSIFICATION_TYPE":"U","NORAD_CAT_ID":48992,"ELEMENT_SET_NO":999,"REV_AT_EPOCH":23961,"BSTAR":0.00024895,"MEAN_MOTION_DOT":1.08e-06,"MEAN_MOTION_DDOT":0.0}]